#dP2022  6 15 18  0  0.00000000      96 __u+U ITR00 EXT  IAC
## 2214 324000.00000000   900.00000000 59745 0.7500000000000
+  116   C06C07C08C09C10C11C12C13C14C16C19C20C21C22C23C24C25
+        C26C27C28C29C30C32C33C34C35C36C37C38C39C40C41C42C43
+        C44C45C46E01E02E03E04E05E07E08E09E10E11E12E13E14E15
+        E18E19E21E24E25E26E27E30E31E33E34E36G01G02G03G04G05
+        G06G07G08G09G10G11G12G13G14G15G16G17G18G19G20G21G22
+        G23G24G25G26G27G28G29G30G31G32J02J03R01R02R03R04R05
+        R07R08R09R11R12R13R14R15R17R18R19R20R21R24  0  0  0
++         9 12  9 10 10  9  9  9 10  9 10  8 10  8  9  8  9
++         9 10  9  7  7 10  8  8  8  9 10 10  9  9  7  9  9
++        10  9  9  9  7  8  9  8  7  8  9  9  8  8  7  8  8
++         9  8  9  8  8  8  7  8  8  9  8  9  8  8  8  7  8
++         7  7  8  8  8  8  9  8  8 10  8  8  8  7  8  8  8
++         8  8  7  8  8  7  9  9  9  8  9 10  8  8 10 10  8
++         8  9  8  8  8  9  9  9  7  8 10  9  9  8  0  0  0
%c M  cc GPS ccc cccc cccc cccc cccc ccccc ccccc ccccc ccccc
%c cc cc ccc ccc cccc cccc cccc cccc ccccc ccccc ccccc ccccc
%f  0.0000000  0.000000000  0.00000000000  0.000000000000000
%f  0.0000000  0.000000000  0.00000000000  0.000000000000000
%i    0    0    0    0      0      0      0      0         0
%i    0    0    0    0      0      0      0      0         0
/* IAC                                ULTRA-RAPID PREDICTION
/* S/V CLOCKS ARE ALIGNED TO GNSS TIME                      
/* G:C1WC2W R:C1PC2P E:C1XC5X C:C2IC6I J:C1CC2S             
/* PCV:IGS14_2196 OL/AL:FES2004  NONE     YN ORB:CoN CLK:CoN
*  2022 06 16  3 15  0.00000000
PC06     42.772792  29662.990004 -29872.853180    198.596694
PC07 -15608.854738  29765.688853  25382.208257   -304.728558
PC08  -9939.583166  40945.994313   3082.086860    364.221312
PC09   5583.545920  32257.449918 -25914.375266   -887.471441
PC10  -7118.611771  29608.774561  29249.271382    125.946123
PC11   7224.218208  20935.221104  17054.250768    417.151015
PC12 -10230.955626  11486.593022  23310.422732   -597.553402
PC13  -5753.473460  41842.511499  -2374.927138     -2.703191
PC14  -2204.702121  17086.371854 -21917.805122    504.776866
PC16  -3447.616707  27130.190742 -31845.805384    139.647742
PC19  -8565.895777 -13505.968344  22894.559921    -10.383105
PC20  10949.252227 -17860.449443  18469.850422   -961.448839
PC21 -25189.395713  11687.220227  -2591.337192   -493.487819
PC22 -23957.452877  -1185.191242  14237.589727   -964.401808
PC23  15005.106268   7605.460876  22274.656413   -934.647942
PC24  -7755.853900  26374.129821  -4864.403901   -970.405646
PC25   6404.605641  23712.664433  13258.840977   -721.251149
PC26 -15215.815723  14595.041336 -18306.332944    722.869354
PC27  17647.541292  -4424.502389 -21180.759873    739.663479
PC28  23750.344800  11490.682993  -9100.772964     79.075291
PC29 -16564.169293 -20570.581397  -9027.803652    568.981692
PC30   1377.185278 -17759.922043 -21497.830443    499.952695
PC32  25124.299636 -11892.796823   2584.689629   -968.784633
PC33   8608.105635  13487.752338 -22857.057511   -970.076109
PC34   -389.384838  18255.861993  21079.890878   -379.863294
PC35 -24138.139229 -11487.245385   8053.661684    322.695769
PC36  -5487.607944 -24158.841485 -12815.259749   -968.297950
PC37  15822.390907 -12986.295360  18977.972034   -909.555594
PC38 -13857.379945  38481.181483  10589.017676      3.472172
PC39  -8086.472531  23788.900151 -33810.963618     34.996157
PC40 -23322.860057  24065.510333  25468.471865    277.793705
PC41  23754.595145   1421.809769 -14527.033393     -5.726514
PC42 -11973.707635  17838.237234 -17750.283665   -960.279780
PC43  15938.362049  20777.231493   9600.788398   -917.916873
PC44 -17726.321527   4917.852536  20976.370786    693.758896
PC45 -14978.091522  -7216.993838 -22403.395260    784.601021
PC46   6751.715998 -26845.044583   3396.078971   -381.369764
PE01 -19166.113735   -641.550226 -22545.521587   -497.009764
PE02  19242.038890    480.162886  22484.248253    305.950709
PE03  28957.174516   5821.205171  -2060.343362   -569.266857
PE04 -24233.220414   7298.310073 -15336.820706  -1050.980803
PE05  16731.118280  15795.388308 -18615.158709   -171.752343
PE07   5045.029669 -16439.207796  24105.203562   -678.804668
PE08  24052.891278  -7437.802063  15584.677539   -547.361434
PE09  -4873.290823  16322.221467 -24197.742230   -554.965149
PE10  -7054.573438  19294.230259  21296.288450   -519.997563
PE11    413.239622  25970.383675  14165.139072   3334.655160
PE12 -13212.274075   9935.414094  24541.750299    -13.336543
PE13     19.501034 -25643.881316 -14794.944930    429.310737
PE14 -15420.737703 -18005.264626 -14752.179494  -1806.584550
PE15  13193.053855  -9801.091704 -24620.798462    739.124752
PE18  27864.727739  10497.035397    863.817340  -1324.516856
PE19 -28300.138460  -7452.879903   4454.416837  -5361.294020
PE21  -6192.156931 -17421.190594 -23114.219120   -740.423043
PE24 -12157.348375  25295.732240   9427.540542   -673.125643
PE25   5954.444913  17626.252086  23030.189741   -577.740098
PE26 -13492.707432 -25950.783802   4542.484789  -1267.701091
PE27  11165.442402 -25329.694826 -10470.771965   -323.120527
PE30  22087.005194 -17491.614871   9053.430597   -596.124236
PE31 -21789.834580  18275.374309  -8200.612916   -498.349487
PE33 -18521.279665 -11754.577880  19873.660875   -455.595580
PE34  18551.248933  11509.265099 -20005.181030   -522.376149
PE36  13066.952338  26303.795262  -3650.231417   -388.741655
PG01 -14441.998301   1862.793090  21922.050497    340.417384
PG02  14560.311488  19028.356195 -10639.705541   -652.640493
PG03 -21407.660017  10119.147312  11798.508308   -279.912044
PG04 -24518.738020     86.105771 -10310.347068   -156.585781
PG05  16553.452344   3328.787979 -20706.515888    -85.693177
PG06   5614.120117  25861.559715   1755.064904    345.452530
PG07  -7754.036328  18253.448893 -17012.773018    321.673513
PG08 -26219.364518  -4899.104472   2057.632511    -72.346484
PG09 -17829.744310   8603.828107 -17784.598750   -327.985818
PG10   7789.657869 -21211.814218  13862.277615   -456.593259
PG11  12509.043594  20414.336634 -11525.605982    -14.816591
PG12  21441.106821  -5673.578436  14266.451209   -231.807201
PG13  22285.450319  13537.031223  -5681.004200    330.766158
PG14  -9731.146405  21233.409916  12554.682773   -111.558940
PG15  26547.135107   2071.299435   1910.951981    -52.900980
PG16 -12457.482941  -9174.412960 -21902.162600   -509.248355
PG17   -831.446160  15376.858288  22065.973874    625.570675
PG18   7939.062630 -18121.059289 -17676.254162    140.908623
PG19   8579.997405  16733.254324  18588.969656    171.270333
PG20   8651.362572  13916.857642 -20934.967623    511.054492
PG21 -17299.583261  -8331.855675  19266.449342    161.308264
PG22 -11065.027647 -17026.487260  17631.579973    276.518395
PG23  15938.043526 -20809.266465   3907.815606    -28.244367
PG24  16696.549888   2032.578089  20333.791099    219.745161
PG25  19690.926677 -17354.129958   2662.402630    337.885971
PG26  -4041.326913 -17271.907405 -19766.002757    212.605106
PG27 -21231.896117 -12836.883025 -10222.356084    215.805825
PG28  -1965.028518  18832.743062  19229.960039    337.502971
PG29  17951.637899  -6820.197190 -18433.348029   -524.473231
PG30  -1096.034710  24579.393192  -9583.950891   -531.506747
PG31  -7009.626126 -25334.806198  -1132.365836   -181.977366
PG32  -2828.349326 -16074.773264  21134.118877   -152.309417
PJ02 -27620.605001  31464.562343    -86.352418     -0.726950
PJ03 -24555.887301  24028.340390  29549.595490     -2.889529
PR01 -23620.231355    287.292491   9611.674348     10.004574
PR02 -21910.403498   8631.861543  -9832.248890    521.428783
PR03  -6832.305147  11684.765991 -21584.025240     58.505809
PR04  11722.631746   7927.164646 -21188.969591    146.661839
PR05  23820.851562     31.072782  -9079.782218     94.707564
PR07   5913.977045 -11667.871547  21932.099095     36.487695
PR08 -11914.798954  -7977.978478  21162.551578    -65.726437
PR09  12734.296236 -17702.463410  13318.446728     60.715494
PR11  -3001.896597 -17855.774037 -17962.302015     36.079688
PR12 -11560.945865    223.393728 -22709.558433     18.878197
PR13 -12848.223128  16615.599064 -14483.951902    -23.644543
PR14  -6462.689568  24398.279716   3633.647993     25.233456
PR15   3419.248856  17227.177484  18518.348414     95.361717
PR17   4005.349267  17477.040095  18161.467142    535.295183
PR18  14875.118982  20366.242555   3649.448196    120.425064
PR19  17756.099059  13965.126796 -11859.284726   -192.876630
PR20  10164.894663  -3660.746924 -23103.700975    -72.697621
PR21  -5094.360424 -18121.621234 -17208.430145   -309.786101
PR24  -9991.098105   4817.643650  22977.528181     98.899508
EOF
